OBJECT_NAME,OBJECT_ID,EPOCH,MEAN_MOTION,ECCENTRICITY,INCLINATION,RA_OF_ASC_NODE,ARG_OF_PERICENTER,MEAN_ANOMALY,EPHEMERIS_TYPE,CLASSIFICATION_TYPE,NORAD_CAT_ID,ELEMENT_SET_NO,REV_AT_EPOCH,BSTAR,MEAN_MOTION_DOT,MEAN_MOTION_DDOT
IRIDIUM 156,2018-061H,2026-07-08T01:09:06.393024,14.34216984,.0002052,86.3941,48.0039,90.3452,269.7979,0,U,43576,999,41636,.5176E-4,.165E-5,0
IRIDIUM 164,2018-061J,2026-07-07T23:01:14.492064,14.34215915,.0002266,86.3947,48.0818,90.1077,270.0378,0,U,43577,999,41639,.38448E-4,.127E-5,0
IRIDIUM 159,2018-061K,2026-07-08T01:36:30.331872,14.34216812,.0002221,86.3939,47.9729,85.4228,274.7222,0,U,43578,999,41637,.50575E-4,.161E-5,0
IRIDIUM 180,2019-002A,2026-07-07T22:14:50.976096,14.34216941,.0002234,86.3986,344.9264,91.0966,269.0486,0,U,43922,999,39196,.47739E-4,.153E-5,0
IRIDIUM 176,2019-002B,2026-07-07T22:58:21.000000,14.72242356,.0002352,86.6104,344.8545,88.9895,271.1592,0,U,43923,999,40230,.90176E-4,.593E-5,0
IRIDIUM 168,2019-002C,2026-07-07T22:05:42.641088,14.34217691,.0002224,86.3986,345.0071,90.5380,269.6070,0,U,43924,999,39194,.10411E-4,.49E-6,0
IRIDIUM 173,2019-002D,2026-07-07T21:47:26.823840,14.34217914,.0002159,86.3984,344.9004,90.6645,269.4798,0,U,43925,999,39192,.30246E-4,.104E-5,0
IRIDIUM 169,2019-002E,2026-07-07T23:30:58.476672,14.38613250,.000171,86.4220,16.4979,96.1299,264.0094,0,U,43926,999,39321,.58906E-4,.2E-5,0
IRIDIUM 172,2019-002F,2026-07-07T09:55:02.854272,14.34217742,.00021558,86.3984,345.1158,88.0621,272.0821,0,U,43927,999,39186,.68017419E-4,.21E-5,0
IRIDIUM 175,2019-002G,2026-07-08T05:00:45.451296,14.43624700,.0004867,86.4515,281.7342,129.4162,230.7470,0,U,43928,999,40201,.6634E-4,.245E-5,0
IRIDIUM 171,2019-002H,2026-07-07T22:51:22.898304,14.34216917,.0002198,86.3991,345.1981,94.7018,265.4429,0,U,43929,999,39193,.75524E-4,.231E-5,0
IRIDIUM 170,2019-002J,2026-07-07T23:07:14.335104,14.72242874,.0002353,86.6103,344.8541,85.4018,274.7468,0,U,43930,999,40231,.90131E-4,.593E-5,0
IRIDIUM 167,2019-002K,2026-07-07T22:42:14.904576,14.34216992,.0002196,86.3985,344.9149,99.6550,260.4894,0,U,43931,999,39193,.82043E-4,.25E-5,0
IRIDIUM 181,2023-068S,2026-07-08T01:03:15.677280,14.43309618,.0002464,86.4480,48.0695,85.2184,274.9299,0,U,56726,999,16544,.54261E-4,.203E-5,0
IRIDIUM 177,2023-068T,2026-07-07T21:00:04.575744,14.80021092,.0002129,86.1980,318.9680,91.9167,268.2297,0,U,56727,999,16942,.10734E-3,.838E-5,0
IRIDIUM 174,2023-068U,2026-07-07T22:49:22.861056,14.72251229,.0002102,86.6111,345.0087,82.5250,277.6206,0,U,56728,999,16907,.93661E-4,.615E-5,0
IRIDIUM 178,2023-068V,2026-07-07T23:58:54.691104,14.80023718,.0002284,86.6533,16.6611,87.1763,272.9720,0,U,56729,999,16944,.70472E-4,.559E-5,0
IRIDIUM 179,2023-068W,2026-07-07T23:51:14.941152,14.80028982,.0002264,86.6766,25.7047,90.7010,269.4471,0,U,56730,999,16944,.92206E-4,.723E-5,0
