IRIDIUM 156             
1 43576U 18061H   26189.04799066  .00000165  00000+0  51760-4 0  9992
2 43576  86.3941  48.0039 0002052  90.3452 269.7979 14.34216984416365
IRIDIUM 164             
1 43577U 18061J   26188.95919551  .00000127  00000+0  38448-4 0  9991
2 43577  86.3947  48.0818 0002266  90.1077 270.0378 14.34215915416399
IRIDIUM 159             
1 43578U 18061K   26189.06701773  .00000161  00000+0  50575-4 0  9993
2 43578  86.3939  47.9729 0002221  85.4228 274.7222 14.34216812416370
IRIDIUM 180             
1 43922U 19002A   26188.92697889  .00000153  00000+0  47739-4 0  9997
2 43922  86.3986 344.9264 0002234  91.0966 269.0486 14.34216941391964
IRIDIUM 176             
1 43923U 19002B   26188.95718750  .00000593  00000+0  90176-4 0  9993
2 43923  86.6104 344.8545 0002352  88.9895 271.1592 14.72242356402302
IRIDIUM 168             
1 43924U 19002C   26188.92063242  .00000049  00000+0  10411-4 0  9990
2 43924  86.3986 345.0071 0002224  90.5380 269.6070 14.34217691391943
IRIDIUM 173             
1 43925U 19002D   26188.90794935  .00000104  00000+0  30246-4 0  9999
2 43925  86.3984 344.9004 0002159  90.6645 269.4798 14.34217914391929
IRIDIUM 169             
1 43926U 19002E   26188.97984348  .00000200  00000+0  58906-4 0  9996
2 43926  86.4220  16.4979 0001710  96.1299 264.0094 14.38613250393215
IRIDIUM 172             
1 43927U 19002F   26188.41322748  .00000210  00000+0  68017-4 0  9991
2 43927  86.3984 345.1158 0002155  88.0621 272.0821 14.34217742391864
IRIDIUM 175             
1 43928U 19002G   26189.20885939  .00000245  00000+0  66340-4 0  9991
2 43928  86.4515 281.7342 0004867 129.4162 230.7470 14.43624700402015
IRIDIUM 171             
1 43929U 19002H   26188.95234836  .00000231  00000+0  75524-4 0  9996
2 43929  86.3991 345.1981 0002198  94.7018 265.4429 14.34216917391930
IRIDIUM 170             
1 43930U 19002J   26188.96336036  .00000593  00000+0  90131-4 0  9996
2 43930  86.6103 344.8541 0002353  85.4018 274.7468 14.72242874402312
IRIDIUM 167             
1 43931U 19002K   26188.94600584  .00000250  00000+0  82043-4 0  9990
2 43931  86.3985 344.9149 0002196  99.6550 260.4894 14.34216992391936
IRIDIUM 181             
1 56726U 23068S   26189.04393145  .00000203  00000+0  54261-4 0  9996
2 56726  86.4480  48.0695 0002464  85.2184 274.9299 14.43309618165445
IRIDIUM 177             
1 56727U 23068T   26188.87505296  .00000838  00000+0  10734-3 0  9999
2 56727  86.1980 318.9680 0002129  91.9167 268.2297 14.80021092169428
IRIDIUM 174             
1 56728U 23068U   26188.95095904  .00000615  00000+0  93661-4 0  9993
2 56728  86.6111 345.0087 0002102  82.5250 277.6206 14.72251229169075
IRIDIUM 178             
1 56729U 23068V   26188.99924411  .00000559  00000+0  70472-4 0  9994
2 56729  86.6533  16.6611 0002284  87.1763 272.9720 14.80023718169448
IRIDIUM 179             
1 56730U 23068W   26188.99392293  .00000723  00000+0  92206-4 0  9995
2 56730  86.6766  25.7047 0002264  90.7010 269.4471 14.80028982169447
